{"epoch":1784799577,"count":18318,"objects":[{"id":"48216","name":"ONEWEB-0198","type":"PAYLOAD","l1":"1 48216U 21031G   26203.69759270 -.00000141  00000-0 -41367-3 0  9998","l2":"2 48216  87.8953 282.6333 0002515  95.6121 264.5296 13.14502840253155"},{"id":"48217","name":"ONEWEB-0189","type":"PAYLOAD","l1":"1 48217U 21031H   26203.48178938 -.00000181  00000-0 -52145-3 0  9992","l2":"2 48217  87.8963 282.6664 0002385  97.4069 262.7332 13.14502643252869"},{"id":"48218","name":"ONEWEB-0196","type":"PAYLOAD","l1":"1 48218U 21031J   26203.45958852  .00000073  00000-0  16293-3 0  9993","l2":"2 48218  87.8964 282.6798 0002167  96.8682 263.2695 13.14502787252868"},{"id":"48219","name":"ONEWEB-0183","type":"PAYLOAD","l1":"1 48219U 21031K   26203.66256922  .00000228  00000-0  57915-3 0  9994","l2":"2 48219  87.8962 282.6365 0001866  94.7049 265.4294 13.14502731252987"},{"id":"48220","name":"ONEWEB-0185","type":"PAYLOAD","l1":"1 48220U 21031L   26203.23201069  .00000019  00000-0  15895-4 0  9991","l2":"2 48220  87.8969 282.7184 0002050  86.7696 273.3669 13.14501407252850"},{"id":"48221","name":"ONEWEB-0187","type":"PAYLOAD","l1":"1 48221U 21031M   26203.66876681  .00000199  00000-0  50331-3 0  9999","l2":"2 48221  87.8961 282.6446 0002131  94.4564 265.6809 13.14503294252927"},{"id":"48222","name":"ONEWEB-0192","type":"PAYLOAD","l1":"1 48222U 21031N   26203.63877648 -.00000196  00000-0 -56380-3 0  9990","l2":"2 48222  87.8956 282.6405 0002129  99.4303 260.7068 13.14503530252836"},{"id":"48223","name":"ONEWEB-0219","type":"PAYLOAD","l1":"1 48223U 21031P   26203.69426745  .00000039  00000-0  70471-4 0  9997","l2":"2 48223  87.8972 282.6236 0002118  92.1569 267.9803 13.14502024253046"},{"id":"48224","name":"ONEWEB-0202","type":"PAYLOAD","l1":"1 48224U 21031Q   26203.52302497  .00000280  00000-0  71960-3 0  9998","l2":"2 48224  87.8963 282.6694 0002739 102.1453 257.9983 13.14503243253006"},{"id":"48225","name":"ONEWEB-0204","type":"PAYLOAD","l1":"1 48225U 21031R   26203.25263158 -.00000176  00000-0 -50917-3 0  9994","l2":"2 48225  87.8962 282.7177 0001682  90.2396 269.8927 13.14503278252863"},{"id":"48226","name":"ONEWEB-0205","type":"PAYLOAD","l1":"1 48226U 21031S   26203.45641223  .00000138  00000-0  33840-3 0  9992","l2":"2 48226  87.8973 282.6728 0002243  92.8550 267.2837 13.14503198252909"},{"id":"48227","name":"ONEWEB-0206","type":"PAYLOAD","l1":"1 48227U 21031T   26203.50557354  .00000148  00000-0  36344-3 0  9993","l2":"2 48227  87.8961 282.6625 0001928 102.8116 257.3229 13.14502630252862"},{"id":"48228","name":"ONEWEB-0182","type":"PAYLOAD","l1":"1 48228U 21031U   26203.65303165  .00000007  00000-0 -15452-4 0  9992","l2":"2 48228  87.8957 282.6396 0001849  95.2133 264.9208 13.14504260253097"},{"id":"48229","name":"ONEWEB-0186","type":"PAYLOAD","l1":"1 48229U 21031V   26203.58803111  .00000184  00000-0  46193-3 0  9991","l2":"2 48229  87.8969 282.6467 0002079  96.7237 263.4130 13.14503320253035"},{"id":"48230","name":"ONEWEB-0181","type":"PAYLOAD","l1":"1 48230U 21031W   26203.64194019 -.00000198  00000-0 -56806-3 0  9999","l2":"2 48230  87.8952 282.6588 0002227  97.2088 262.9295 13.14501463252893"},{"id":"48231","name":"ONEWEB-0188","type":"PAYLOAD","l1":"1 48231U 21031X   26203.68000845  .00000127  00000-0  30705-3 0  9997","l2":"2 48231  87.8955 282.6507 0002060  97.9069 262.2294 13.14502700252807"},{"id":"48232","name":"ONEWEB-0220","type":"PAYLOAD","l1":"1 48232U 21031Y   26203.64356778 -.00000139  00000-0 -40831-3 0  9999","l2":"2 48232  87.8965 282.6362 0002088  91.4572 268.6797 13.14505211253063"},{"id":"48233","name":"ONEWEB-0165","type":"PAYLOAD","l1":"1 48233U 21031Z   26203.21537095  .00000270  00000-0  69255-3 0  9991","l2":"2 48233  87.8964 282.7325 0002398  97.7270 262.4132 13.14503904252961"},{"id":"48234","name":"ONEWEB-0199","type":"PAYLOAD","l1":"1 48234U 21031AA  26203.27563853  .00000161  00000-0  40048-3 0  9997","l2":"2 48234  87.8967 282.7082 0001874 101.8572 258.2768 13.14502471252871"},{"id":"48235","name":"ONEWEB-0203","type":"PAYLOAD","l1":"1 48235U 21031AB  26203.64671177 -.00000096  00000-0 -29241-3 0  9999","l2":"2 48235  87.8962 282.6370 0002128 103.7382 256.3985 13.14502045252933"},{"id":"48236","name":"ONEWEB-0197","type":"PAYLOAD","l1":"1 48236U 21031AC  26203.24060087 -.00000106  00000-0 -32125-3 0  9995","l2":"2 48236  87.8958 282.7007 0001905  91.2674 268.8674 13.14502976252794"},{"id":"48237","name":"ONEWEB-0194","type":"PAYLOAD","l1":"1 48237U 21031AD  26203.44847070  .00000251  00000-0  64299-3 0  9999","l2":"2 48237  87.8963 282.6834 0002007 105.5482 254.5869 13.14504239252992"},{"id":"48238","name":"ONEWEB-0193","type":"PAYLOAD","l1":"1 48238U 21031AE  26203.92105178  .00000002  00000-0 -29042-4 0  9992","l2":"2 48238  87.8963 282.5793 0001927 110.4943 249.6394 13.14502436253001"},{"id":"48239","name":"ONEWEB-0191","type":"PAYLOAD","l1":"1 48239U 21031AF  26203.47541633 -.00000150  00000-0 -43902-3 0  9998","l2":"2 48239  87.8968 282.6694 0001918  95.0421 265.0927 13.14501587252804"},{"id":"48240","name":"ONEWEB-0195","type":"PAYLOAD","l1":"1 48240U 21031AG  26203.30022603  .00000088  00000-0  20399-3 0  9996","l2":"2 48240  87.8970 282.7045 0002399  96.9409 263.1993 13.14504547252766"},{"id":"48241","name":"ONEWEB-0201","type":"PAYLOAD","l1":"1 48241U 21031AH  26203.66904225  .00000190  00000-0  47679-3 0  9999","l2":"2 48241  87.8961 282.6446 0001951  91.1493 268.9861 13.14502713253046"},{"id":"48242","name":"ONEWEB-0207","type":"PAYLOAD","l1":"1 48242U 21031AJ  26203.64907927 -.00000067  00000-0 -21651-3 0  9997","l2":"2 48242  87.8963 282.6355 0001934  91.4650 268.6701 13.14501513252953"},{"id":"48243","name":"ONEWEB-0208","type":"PAYLOAD","l1":"1 48243U 21031AK  26203.47860966 -.00000061  00000-0 -19776-3 0  9999","l2":"2 48243  87.8962 282.6746 0002423  98.3841 261.7564 13.14503664252948"},{"id":"48244","name":"ONEWEB-0200","type":"PAYLOAD","l1":"1 48244U 21031AL  26203.67050219  .00000172  00000-0  43035-3 0  9990","l2":"2 48244  87.8975 282.6260 0002094  97.1622 262.9746 13.14502529252890"},{"id":"48245","name":"ONEWEB-0217","type":"PAYLOAD","l1":"1 48245U 21031AM  26203.91470387  .00000054  00000-0  11184-3 0  9999","l2":"2 48245  87.8972 282.5816 0002409  98.1061 262.0342 13.14503208252878"}]}