OBJECT_NAME,OBJECT_ID,EPOCH,MEAN_MOTION,ECCENTRICITY,INCLINATION,RA_OF_ASC_NODE,ARG_OF_PERICENTER,MEAN_ANOMALY,EPHEMERIS_TYPE,CLASSIFICATION_TYPE,NORAD_CAT_ID,ELEMENT_SET_NO,REV_AT_EPOCH,BSTAR,MEAN_MOTION_DOT,MEAN_MOTION_DDOT
ONEWEB-0198,2021-031G,2026-07-22T16:44:32.009280,13.14502840,.00025149,87.8953,282.6333,95.6121,264.5296,0,U,48216,999,25315,-.41366625E-3,-.141E-5,0
ONEWEB-0189,2021-031H,2026-07-22T11:33:46.602432,13.14502643,.00023852,87.8963,282.6664,97.4069,262.7332,0,U,48217,999,25286,-.52145407E-3,-.181E-5,0
ONEWEB-0196,2021-031J,2026-07-22T11:01:48.448128,13.14502787,.00021674,87.8964,282.6798,96.8682,263.2695,0,U,48218,999,25286,.16293008E-3,.73E-6,0
ONEWEB-0183,2021-031K,2026-07-22T15:54:05.980608,13.14502731,.00018659,87.8962,282.6365,94.7049,265.4294,0,U,48219,999,25298,.57914565E-3,.228E-5,0
ONEWEB-0185,2021-031L,2026-07-22T05:34:05.723616,13.14501407,.00020503,87.8969,282.7184,86.7696,273.3669,0,U,48220,999,25285,.1589485E-4,.19E-6,0
ONEWEB-0187,2021-031M,2026-07-22T16:03:01.452384,13.14503294,.00021308,87.8961,282.6446,94.4564,265.6809,0,U,48221,999,25292,.50330815E-3,.199E-5,0
ONEWEB-0192,2021-031N,2026-07-22T15:19:50.287872,13.14503530,.00021294,87.8956,282.6405,99.4303,260.7068,0,U,48222,999,25283,-.56379922E-3,-.196E-5,0
ONEWEB-0219,2021-031P,2026-07-22T16:39:44.707680,13.14502024,.00021184,87.8972,282.6236,92.1569,267.9803,0,U,48223,999,25304,.70471263E-4,.39E-6,0
ONEWEB-0202,2021-031Q,2026-07-22T12:33:09.357408,13.14503243,.00027392,87.8963,282.6694,102.1453,257.9983,0,U,48224,999,25300,.71960362E-3,.28E-5,0
ONEWEB-0204,2021-031R,2026-07-22T06:03:47.368512,13.14503278,.00016825,87.8962,282.7177,90.2396,269.8927,0,U,48225,999,25286,-.50917448E-3,-.176E-5,0
ONEWEB-0205,2021-031S,2026-07-22T10:57:14.016672,13.14503198,.00022434,87.8973,282.6728,92.8550,267.2837,0,U,48226,999,25290,.33839987E-3,.138E-5,0
ONEWEB-0206,2021-031T,2026-07-22T12:08:01.553856,13.14502630,.00019276,87.8961,282.6625,102.8116,257.3229,0,U,48227,999,25286,.36344178E-3,.148E-5,0
ONEWEB-0182,2021-031U,2026-07-22T15:40:21.934560,13.14504260,.00018489,87.8957,282.6396,95.2133,264.9208,0,U,48228,999,25309,-.15451959E-4,.7E-7,0
ONEWEB-0186,2021-031V,2026-07-22T14:06:45.887904,13.14503320,.00020787,87.8969,282.6467,96.7237,263.4130,0,U,48229,999,25303,.4619295E-3,.184E-5,0
ONEWEB-0181,2021-031W,2026-07-22T15:24:23.632416,13.14501463,.00022272,87.8952,282.6588,97.2088,262.9295,0,U,48230,999,25289,-.56806344E-3,-.198E-5,0
ONEWEB-0188,2021-031X,2026-07-22T16:19:12.730080,13.14502700,.00020598,87.8955,282.6507,97.9069,262.2294,0,U,48231,999,25280,.3070535E-3,.127E-5,0
ONEWEB-0220,2021-031Y,2026-07-22T15:26:44.256192,13.14505211,.00020876,87.8965,282.6362,91.4572,268.6797,0,U,48232,999,25306,-.40831499E-3,-.139E-5,0
ONEWEB-0165,2021-031Z,2026-07-22T05:10:08.050080,13.14503904,.00023984,87.8964,282.7325,97.7270,262.4132,0,U,48233,999,25296,.69255419E-3,.27E-5,0
ONEWEB-0199,2021-031AA,2026-07-22T06:36:55.168992,13.14502471,.00018741,87.8967,282.7082,101.8572,258.2768,0,U,48234,999,25287,.40048284E-3,.161E-5,0
ONEWEB-0203,2021-031AB,2026-07-22T15:31:15.896928,13.14502045,.00021283,87.8962,282.6370,103.7382,256.3985,0,U,48235,999,25293,-.29241389E-3,-.96E-6,0
ONEWEB-0197,2021-031AC,2026-07-22T05:46:27.915168,13.14502976,.00019054,87.8958,282.7007,91.2674,268.8674,0,U,48236,999,25279,-.32125089E-3,-.106E-5,0
ONEWEB-0194,2021-031AD,2026-07-22T10:45:47.868480,13.14504239,.00020075,87.8963,282.6834,105.5482,254.5869,0,U,48237,999,25299,.64299053E-3,.251E-5,0
ONEWEB-0193,2021-031AE,2026-07-22T22:06:18.873792,13.14502436,.00019267,87.8963,282.5793,110.4943,249.6394,0,U,48238,999,25300,-.2904157E-4,.2E-7,0
ONEWEB-0191,2021-031AF,2026-07-22T11:24:35.970912,13.14501587,.00019176,87.8968,282.6694,95.0421,265.0927,0,U,48239,999,25280,-.4390234E-3,-.15E-5,0
ONEWEB-0195,2021-031AG,2026-07-22T07:12:19.528992,13.14504547,.00023986,87.8970,282.7045,96.9409,263.1993,0,U,48240,999,25276,.20398585E-3,.88E-6,0
ONEWEB-0201,2021-031AH,2026-07-22T16:03:25.250400,13.14502713,.00019506,87.8961,282.6446,91.1493,268.9861,0,U,48241,999,25304,.47678833E-3,.19E-5,0
ONEWEB-0207,2021-031AJ,2026-07-22T15:34:40.448928,13.14501513,.00019337,87.8963,282.6355,91.4650,268.6701,0,U,48242,999,25295,-.21650548E-3,-.67E-6,0
ONEWEB-0208,2021-031AK,2026-07-22T11:29:11.874624,13.14503664,.0002423,87.8962,282.6746,98.3841,261.7564,0,U,48243,999,25294,-.19775547E-3,-.61E-6,0
ONEWEB-0200,2021-031AL,2026-07-22T16:05:31.389216,13.14502529,.00020942,87.8975,282.6260,97.1622,262.9746,0,U,48244,999,25289,.43034628E-3,.172E-5,0
ONEWEB-0217,2021-031AM,2026-07-22T21:57:10.414368,13.14503208,.00024086,87.8972,282.5816,98.1061,262.0342,0,U,48245,999,25287,.11184314E-3,.54E-6,0
